[{"OBJECT_NAME":"GAOFEN-9 03","OBJECT_ID":"2020-039A","EPOCH":"2026-03-09T21:55:15.121344","MEAN_MOTION":15.30529116,"ECCENTRICITY":0.0013094,"INCLINATION":97.5219,"RA_OF_ASC_NODE":201.2158,"ARG_OF_PERICENTER":77.4533,"MEAN_ANOMALY":282.8172,"EPHEMERIS_TYPE":0,"CLASSIFICATION_TYPE":"U","NORAD_CAT_ID":45794,"ELEMENT_SET_NO":999,"REV_AT_EPOCH":31856,"BSTAR":0.00039258132,"MEAN_MOTION_DOT":0.00011544,"MEAN_MOTION_DDOT":0},{"OBJECT_NAME":"STARLINK-30522","OBJECT_ID":"2023-153T","EPOCH":"2026-03-09T22:00:01.999584","MEAN_MOTION":15.2671845,"ECCENTRICITY":8.686e-5,"INCLINATION":43.0001,"RA_OF_ASC_NODE":65.9635,"ARG_OF_PERICENTER":248.6792,"MEAN_ANOMALY":293.1266,"EPHEMERIS_TYPE":0,"CLASSIFICATION_TYPE":"U","NORAD_CAT_ID":58008,"ELEMENT_SET_NO":999,"REV_AT_EPOCH":572,"BSTAR":0.0013954077,"MEAN_MOTION_DOT":0.00037335,"MEAN_MOTION_DDOT":0}]
